{
  "type": "FeatureCollection",
  "features": [
    {
      "type": "Feature",
      "properties": {
        "norad_id": 38091,
        "name": "BEIDOU-2 G5 (C05)",
        "group": "gnss",
        "lat": -2.330925361905989,
        "lon": 21.913419718083354,
        "alt_km": 35778.2838574461,
        "timestamp": "2025-12-15T15:53:20.097828+00:00",
        "meta_object_name": "BEIDOU-2 G5 (C05)",
        "meta_object_id": "2012-008A",
        "meta_epoch": "2025-12-14T22:15:32.898240",
        "meta_mean_motion": 1.00276646,
        "meta_eccentricity": 0.00125198,
        "meta_inclination": 3.1149,
        "meta_ra_of_asc_node": 70.7041,
        "meta_arg_of_pericenter": 228.6209,
        "meta_mean_anomaly": 177.2276,
        "meta_ephemeris_type": 0,
        "meta_classification_type": "U",
        "meta_norad_cat_id": 38091,
        "meta_element_set_no": 999,
        "meta_rev_at_epoch": 5052,
        "meta_bstar": 0,
        "meta_mean_motion_dot": 7.4e-07,
        "meta_mean_motion_ddot": 0,
        "tle_line1": "1 38091U 12008A   25348.92746410  .00000074  00000+0  00000+0 0  9996",
        "tle_line2": "2 38091   3.1149  70.7041 0012519 228.6209 177.2276  1.00276646 50523"
      },
      "geometry": {
        "type": "Point",
        "coordinates": [
          21.913419718083354,
          -2.330925361905989
        ]
      }
    },
    {
      "type": "Feature",
      "properties": {
        "norad_id": 38250,
        "name": "BEIDOU-2 M3 (C11)",
        "group": "gnss",
        "lat": 53.35221954009346,
        "lon": 16.48023061246261,
        "alt_km": 21586.20418815257,
        "timestamp": "2025-12-15T15:53:20.097844+00:00",
        "meta_object_name": "BEIDOU-2 M3 (C11)",
        "meta_object_id": "2012-018A",
        "meta_epoch": "2025-12-13T22:30:51.861600",
        "meta_mean_motion": 1.86229879,
        "meta_eccentricity": 0.00242907,
        "meta_inclination": 55.9188,
        "meta_ra_of_asc_node": 311.1166,
        "meta_arg_of_pericenter": 274.3199,
        "meta_mean_anomaly": 85.3911,
        "meta_ephemeris_type": 0,
        "meta_classification_type": "U",
        "meta_norad_cat_id": 38250,
        "meta_element_set_no": 999,
        "meta_rev_at_epoch": 9249,
        "meta_bstar": 0,
        "meta_mean_motion_dot": -9.6e-07,
        "meta_mean_motion_ddot": 0,
        "tle_line1": "1 38250U 12018A   25347.93810025 -.00000096  00000+0  00000+0 0  9993",
        "tle_line2": "2 38250  55.9188 311.1166 0024290 274.3199  85.3911  1.86229879 92490"
      },
      "geometry": {
        "type": "Point",
        "coordinates": [
          16.48023061246261,
          53.35221954009346
        ]
      }
    },
    {
      "type": "Feature",
      "properties": {
        "norad_id": 38251,
        "name": "BEIDOU-2 M4 (C12)",
        "group": "gnss",
        "lat": 45.07299250887973,
        "lon": 87.35413754832882,
        "alt_km": 21562.382767945095,
        "timestamp": "2025-12-15T15:53:20.097864+00:00",
        "meta_object_name": "BEIDOU-2 M4 (C12)",
        "meta_object_id": "2012-018B",
        "meta_epoch": "2025-12-13T07:59:48.422112",
        "meta_mean_motion": 1.86229462,
        "meta_eccentricity": 0.00154528,
        "meta_inclination": 55.8208,
        "meta_ra_of_asc_node": 310.3658,
        "meta_arg_of_pericenter": 277.4494,
        "meta_mean_anomaly": 82.3644,
        "meta_ephemeris_type": 0,
        "meta_classification_type": "U",
        "meta_norad_cat_id": 38251,
        "meta_element_set_no": 999,
        "meta_rev_at_epoch": 9248,
        "meta_bstar": 0,
        "meta_mean_motion_dot": -9.5e-07,
        "meta_mean_motion_ddot": 0,
        "tle_line1": "1 38251U 12018B   25347.33319933 -.00000095  00000+0  00000+0 0  9999",
        "tle_line2": "2 38251  55.8208 310.3658 0015452 277.4494  82.3644  1.86229462 92489"
      },
      "geometry": {
        "type": "Point",
        "coordinates": [
          87.35413754832882,
          45.07299250887973
        ]
      }
    },
    {
      "type": "Feature",
      "properties": {
        "norad_id": 38652,
        "name": "SES-5 (EGNOS/PRN 136)",
        "group": "gnss",
        "lat": 0.021280568530208124,
        "lon": -32.122293321018795,
        "alt_km": 35781.86421937147,
        "timestamp": "2025-12-15T15:53:20.097876+00:00",
        "meta_object_name": "SES-5 (EGNOS/PRN 136)",
        "meta_object_id": "2012-036A",
        "meta_epoch": "2025-12-14T22:09:38.644416",
        "meta_mean_motion": 1.00270103,
        "meta_eccentricity": 0.00019722,
        "meta_inclination": 0.0579,
        "meta_ra_of_asc_node": 304.8617,
        "meta_arg_of_pericenter": 326.8696,
        "meta_mean_anomaly": 149.4922,
        "meta_ephemeris_type": 0,
        "meta_classification_type": "U",
        "meta_norad_cat_id": 38652,
        "meta_element_set_no": 999,
        "meta_rev_at_epoch": 4260,
        "meta_bstar": 0,
        "meta_mean_motion_dot": 5.3e-07,
        "meta_mean_motion_ddot": 0,
        "tle_line1": "1 38652U 12036A   25348.92336394  .00000053  00000+0  00000+0 0  9993",
        "tle_line2": "2 38652   0.0579 304.8617 0001972 326.8696 149.4922  1.00270103 42602"
      },
      "geometry": {
        "type": "Point",
        "coordinates": [
          -32.122293321018795,
          0.021280568530208124
        ]
      }
    },
    {
      "type": "Feature",
      "properties": {
        "norad_id": 38775,
        "name": "BEIDOU-2 M6 (C14)",
        "group": "gnss",
        "lat": -36.00912274791191,
        "lon": 40.10844281875246,
        "alt_km": 21505.037574361955,
        "timestamp": "2025-12-15T15:53:20.097886+00:00",
        "meta_object_name": "BEIDOU-2 M6 (C14)",
        "meta_object_id": "2012-050B",
        "meta_epoch": "2025-12-14T02:49:55.180128",
        "meta_mean_motion": 1.86230875,
        "meta_eccentricity": 0.0011244,
        "meta_inclination": 56.3796,
        "meta_ra_of_asc_node": 69.0216,
        "meta_arg_of_pericenter": 344.0149,
        "meta_mean_anomaly": 15.9678,
        "meta_ephemeris_type": 0,
        "meta_classification_type": "U",
        "meta_norad_cat_id": 38775,
        "meta_element_set_no": 999,
        "meta_rev_at_epoch": 8986,
        "meta_bstar": 0,
        "meta_mean_motion_dot": -8.2e-07,
        "meta_mean_motion_ddot": 0,
        "tle_line1": "1 38775U 12050B   25348.11799977 -.00000082  00000+0  00000+0 0  9999",
        "tle_line2": "2 38775  56.3796  69.0216 0011244 344.0149  15.9678  1.86230875 89866"
      },
      "geometry": {
        "type": "Point",
        "coordinates": [
          40.10844281875246,
          -36.00912274791191
        ]
      }
    },
    {
      "type": "Feature",
      "properties": {
        "norad_id": 38779,
        "name": "GSAT-10 (GAGAN/PRN 128)",
        "group": "gnss",
        "lat": 0.07223219381088064,
        "lon": 45.871849006196086,
        "alt_km": 35784.30613173717,
        "timestamp": "2025-12-15T15:53:20.097896+00:00",
        "meta_object_name": "GSAT-10 (GAGAN/PRN 128)",
        "meta_object_id": "2012-051B",
        "meta_epoch": "2025-12-14T22:18:38.668608",
        "meta_mean_motion": 1.00272978,
        "meta_eccentricity": 0.00024851,
        "meta_inclination": 0.0844,
        "meta_ra_of_asc_node": 266.1106,
        "meta_arg_of_pericenter": 221.9664,
        "meta_mean_anomaly": 13.4366,
        "meta_ephemeris_type": 0,
        "meta_classification_type": "U",
        "meta_norad_cat_id": 38779,
        "meta_element_set_no": 999,
        "meta_rev_at_epoch": 4825,
        "meta_bstar": 0,
        "meta_mean_motion_dot": -1.45e-06,
        "meta_mean_motion_ddot": 0,
        "tle_line1": "1 38779U 12051B   25348.92961422 -.00000145  00000+0  00000+0 0  9999",
        "tle_line2": "2 38779   0.0844 266.1106 0002485 221.9664  13.4366  1.00272978 48251"
      },
      "geometry": {
        "type": "Point",
        "coordinates": [
          45.871849006196086,
          0.07223219381088064
        ]
      }
    },
    {
      "type": "Feature",
      "properties": {
        "norad_id": 38833,
        "name": "GPS BIIF-3  (PRN 24)",
        "group": "gnss",
        "lat": -39.25768291694278,
        "lon": 8.268362273648952,
        "alt_km": 20642.905590543345,
        "timestamp": "2025-12-15T15:53:20.097907+00:00",
        "meta_object_name": "GPS BIIF-3  (PRN 24)",
        "meta_object_id": "2012-053A",
        "meta_epoch": "2025-12-13T20:21:34.724448",
        "meta_mean_motion": 2.00565042,
        "meta_eccentricity": 0.01758819,
        "meta_inclination": 53.5579,
        "meta_ra_of_asc_node": 151.1931,
        "meta_arg_of_pericenter": 64.0051,
        "meta_mean_anomaly": 297.7998,
        "meta_ephemeris_type": 0,
        "meta_classification_type": "U",
        "meta_norad_cat_id": 38833,
        "meta_element_set_no": 999,
        "meta_rev_at_epoch": 9572,
        "meta_bstar": 0,
        "meta_mean_motion_dot": 9.2e-07,
        "meta_mean_motion_ddot": 0,
        "tle_line1": "1 38833U 12053A   25347.84831857  .00000092  00000+0  00000+0 0  9990",
        "tle_line2": "2 38833  53.5579 151.1931 0175881  64.0051 297.7998  2.00565042 95726"
      },
      "geometry": {
        "type": "Point",
        "coordinates": [
          8.268362273648952,
          -39.25768291694278
        ]
      }
    }
  ]
}